GPS BIIR-2  (PRN 13)    
1 24876U 97035A   16231.42778959  .00000000  00000-0  10000-3 0  9999
2 24876  55.6359 239.0367 0038451 115.0383 245.4021  2.00563122139758
GPS BIIR-3  (PRN 11)    
1 25933U 99055A   16231.80091582 -.00000004  00000-0  00000+0 0  9990
2 25933  51.4279  90.9072 0165111  89.3468 107.9930  2.00562740123575
GPS BIIR-4  (PRN 20)    
1 26360U 00025A   16231.66316216  .00000008  00000-0  00000+0 0  9995
2 26360  53.0805 167.5107 0044239  80.8849 113.9802  2.00550115119279
GPS BIIR-5  (PRN 28)    
1 26407U 00040A   16231.44339522 -.00000063  00000-0  00000+0 0  9997
2 26407  56.6942 356.9502 0200414 267.5098  52.3865  2.00569173117945
GPS BIIR-6  (PRN 14)    
1 26605U 00071A   16231.67196178  .00000057  00000-0  00000+0 0  9996
2 26605  55.2061 236.8741 0091438 248.4793 146.4039  2.00519655115549
GPS BIIR-7  (PRN 18)    
1 26690U 01004A   16231.73129995  .00000010  00000-0  00000+0 0  9996
2 26690  53.0068 170.4694 0174928 253.3927 301.2509  2.00558822113951
GPS BIIR-8  (PRN 16)    
1 27663U 03005A   16231.45036443 -.00000063  00000-0  00000+0 0  9993
2 27663  56.7670 356.6716 0085899  20.9173  60.9835  2.00578678 99307
GPS BIIR-9  (PRN 21)    
1 27704U 03010A   16231.12504013  .00000003  00000-0  00000+0 0  9995
2 27704  53.6902 110.8119 0235878 258.8700 277.8821  2.00575783 98101
GPS BIIR-10 (PRN 22)    
1 28129U 03058A   16231.12593489  .00000006  00000-0  00000+0 0  9997
2 28129  52.8883 170.5221 0077652 252.9901 106.1353  2.00553884 92792
GPS BIIR-11 (PRN 19)    
1 28190U 04009A   16231.12618943 -.00000010  00000-0  00000+0 0  9991
2 28190  55.8301  57.9339 0104734  47.4701 314.5396  2.00569224 90978
GPS BIIR-12 (PRN 23)    
1 28361U 04023A   16231.76060071  .00000053  00000-0  00000+0 0  9996
2 28361  54.1810 232.2906 0112848 215.5013 158.0110  2.00568306 89076
GPS BIIR-13 (PRN 02)    
1 28474U 04045A   16231.46092400  .00000005  00000-0  00000+0 0  9990
2 28474  54.0773 110.1467 0160579 240.4750 279.9417  2.00569824 86428
GPS BIIRM-1 (PRN 17)    
1 28874U 05038A   16231.59189706 -.00000014  00000-0  00000+0 0  9998
2 28874  55.9947  55.1334 0112893 249.9873 111.0883  2.00556879 79838
GPS BIIRM-2 (PRN 31)    
1 29486U 06042A   16231.77096330  .00000003  00000-0  00000+0 0  9991
2 29486  55.5930 294.3793 0082732 335.9216  71.2702  2.00548505 72553
GPS BIIRM-3 (PRN 12)    
1 29601U 06052A   16231.14753337 -.00000064  00000-0  00000+0 0  9997
2 29601  56.7396 355.6060 0059133  43.6301 316.8623  2.00563784 71450
GPS BIIRM-4 (PRN 15)    
1 32260U 07047A   16230.46159475  .00000056  00000-0  00000-0 0  9995
2 32260  53.3095 228.9597 0082224  26.7340 333.7038  2.00566089 64836
GPS BIIRM-5 (PRN 29)    
1 32384U 07062A   16229.56761796 -.00000010  00000-0  00000+0 0  9993
2 32384  56.0508  55.7753 0006622 345.0226 226.1223  2.00553175 63539
GPS BIIRM-6 (PRN 07)    
1 32711U 08012A   16231.37072843  .00000004  00000-0  00000+0 0  9995
2 32711  55.3180 293.8382 0100222 209.6162 149.8981  2.00568425 61768
GPS BIIRM-8 (PRN 05)    
1 35752U 09043A   16231.47854977  .00000010  00000-0  00000+0 0  9992
2 35752  54.2287 171.7917 0045727  25.1320  77.9903  2.00574273 51341
GPS BIIF-1  (PRN 25)    
1 36585U 10022A   16230.04633640 -.00000068  00000-0  00000+0 0  9994
2 36585  56.0597 352.6767 0054342  43.8409 211.1647  2.00559445 45569
GPS BIIF-2  (PRN 01)    
1 37753U 11036A   16231.74706657  .00000008  00000-0  00000+0 0  9998
2 37753  55.2919 112.8462 0056972  27.9546 104.8079  2.00567702 37271
GPS BIIF-3  (PRN 24)    
1 38833U 12053A   16231.55069582  .00000006  00000-0  00000+0 0  9994
2 38833  54.3478 291.0463 0044591  20.4359 339.8288  2.00556317 28357
GPS BIIF-4  (PRN 27)    
1 39166U 13023A   16231.41117887 -.00000017  00000-0  00000+0 0  9992
2 39166  55.7051  52.2540 0037256  16.4767 343.6957  2.00566804 23870
GPS BIIF-5  (PRN 30)    
1 39533U 14008A   16231.40554754 -.00000002  00000-0  00000+0 0  9995
2 39533  54.5034 296.2982 0023805 183.5604 176.5061  2.00550848 18242
GPS BIIF-6  (PRN 06)    
1 39741U 14026A   16231.19261862  .00000006  00000-0  00000+0 0  9990
2 39741  55.2811 112.3862 0004824 276.1014  83.9270  2.00554747 16516
GPS BIIF-7  (PRN 09)    
1 40105U 14045A   16231.27764003  .00000057  00000-0  00000+0 0  9997
2 40105  54.7014 232.0540 0003363 144.4139 215.6271  2.00548146 14964
GPS BIIF-8  (PRN 03)    
1 40294U 14068A   16231.15545269  .00000010  00000-0  00000+0 0  9998
2 40294  54.9711 172.5501 0003229 291.3006  68.6402  2.00567162 13184
GPS BIIF-9  (PRN 26)    
1 40534U 15013A   16230.30104850 -.00000068  00000-0  00000+0 0  9993
2 40534  55.0241 352.0704 0009393 347.2720  12.7147  2.00576726 10238
GPS BIIF-10  (PRN 08)   
1 40730U 15033A   16230.95473453 -.00000017  00000-0  00000+0 0  9996
2 40730  55.2410  52.0807 0018817 297.5994  62.2624  2.00556558  8001
GPS BIIF-11  (PRN 10)   
1 41019U 15062A   16231.00633308  .00000009  00000-0  00000+0 0  9993
2 41019  54.9839 172.3306 0017646 207.2259 152.6571  2.00562472  5828
GPS BIIF-12  (PRN 32)   
1 41328U 16007A   16231.09262185  .00000059  00000-0  00000+0 0  9991
2 41328  54.9635 232.1649 0008308 238.8970 121.0414  2.00567770  3881
